O3B FM5                 
1 39188U 13031A   26094.08059846 -.00000026  00000+0  00000+0 0  9995
2 39188   0.1018   5.9687 0003217 357.9536 356.0787  5.00116518233334
O3B FM4                 
1 39189U 13031B   26086.40408870 -.00000028  00000+0  00000+0 0  9990
2 39189   0.0535 345.5776 0005068  27.4764 346.9547  5.00115128232953
O3B FM2                 
1 39190U 13031C   26093.46590132 -.00000026  00000+0  00000+0 0  9997
2 39190   0.0517 339.0554 0002800  31.4742 349.4743  5.00116081233371
O3B PFM                 
1 39191U 13031D   26093.87979746 -.00000026  00000+0  00000+0 0  9995
2 39191   0.0701   3.9943 0005395  16.2253 339.8000  5.00116065232950
O3B FM3                 
1 40079U 14038A   26093.54665501 -.00000026  00000+0  00000+0 0  9995
2 40079   0.0526 354.6654 0001008  85.2025 280.1416  5.00115642209310
O3B FM7                 
1 40080U 14038B   26093.89253109 -.00000026  00000+0  00000+0 0  9992
2 40080   0.0568 348.1667 0004276  10.6600   1.1706  5.00115689214164
O3B FM6                 
1 40081U 14038C   26094.11942091 -.00000026  00000+0  00000+0 0  9994
2 40081   0.0537 351.8683 0002640  20.4942 347.6423  5.00115756214115
O3B FM8                 
1 40082U 14038D   26093.97283065 -.00000026  00000+0  00000+0 0  9997
2 40082   0.0543 350.9466 0002677  24.5126 344.5474  5.00116026214237
O3B FM10                
1 40348U 14083A   26088.40299652 -.00000029  00000+0  00000+0 0  9996
2 40348   0.0446 335.3536 0002713  29.5150 355.1295  5.00115087205899
O3B FM11                
1 40349U 14083B   26094.01263456 -.00000026  00000+0  00000+0 0  9991
2 40349   0.0579   0.0324 0003009   0.3108 359.6553  5.00115635206208
O3B FM12                
1 40350U 14083C   26094.03970805 -.00000026  00000+0  00000+0 0  9998
2 40350   0.0571 359.5916 0002587   9.4271 350.9842  5.00116028206215
O3B FM9                 
1 40351U 14083D   26093.26697712 -.00000026  00000+0  00000+0 0  9996
2 40351   0.0591   0.1634 0002706  11.5018 348.3391  5.00115977206324
LEO 1 (LEO VANTAGE 1)   
1 43113U 18004C   26094.27708409  .00006573  00000+0  45731-3 0  9996
2 43113  99.2457   2.9271 0350639 306.4073  50.5258 14.67460140426640
O3B FM15                
1 43231U 18024A   26092.13440900 -.00000027  00000+0  00000+0 0  9996
2 43231   0.0502   3.1354 0002633   6.1622 350.7046  5.00115731147223
O3B FM16                
1 43232U 18024B   26094.18567594 -.00000026  00000+0  00000+0 0  9992
2 43232   0.0471   6.4430 0002702   3.2473 350.3134  5.00115998147239
O3B FM14                
1 43233U 18024C   26094.02655501 -.00000026  00000+0  00000+0 0  9992
2 43233   0.0457   6.0672 0002850   8.0316 345.9074  5.00115723147241
O3B FM13                
1 43234U 18024D   26084.69755415 -.00000024  00000+0  00000+0 0  9998
2 43234   0.0470 335.8508 0003967 348.6026  35.5167  5.00115556146887
